{
  "norad_id": 67283,
  "name": "HORS 5",
  "history": [
    {
      "epoch": "2026-03-28T21:18:46.552320Z",
      "apogee_km": 503.63927142034663,
      "perigee_km": 491.14396073463286,
      "latitude_deg": -3.304596941819365e-05,
      "longitude_deg": 17.951509363441517,
      "height_km": 499.33128524375877,
      "semi_major_axis_km": 6875.5286160774895,
      "eccentricity": 0.00090868,
      "inclination_deg": 97.3983,
      "raan_deg": 163.9475,
      "arg_perigee_deg": 280.7205,
      "mean_anomaly_deg": 79.3008,
      "mean_motion_rev_day": 15.2280264
    },
    {
      "epoch": "2026-03-29T03:37:16.025088Z",
      "apogee_km": 503.6050147254482,
      "perigee_km": 491.13009925724236,
      "latitude_deg": 5.041749857836676e-06,
      "longitude_deg": -76.67146675142341,
      "height_km": 499.41098358289673,
      "semi_major_axis_km": 6875.5045569913445,
      "eccentricity": 0.0009072,
      "inclination_deg": 97.3983,
      "raan_deg": 164.2064,
      "arg_perigee_deg": 279.77,
      "mean_anomaly_deg": 80.2512,
      "mean_motion_rev_day": 15.22810633
    }
  ]
}